{
    "links": {
        "self": "http://www.neowsapp.com/rest/v1/neo/3968758?api_key=iIulBulltgU6a56xZRHN4H3l9WmuAYTsLGpBGhQ2"
    },
    "id": "3968758",
    "neo_reference_id": "3968758",
    "name": "(2019 YE5)",
    "designation": "2019 YE5",
    "nasa_jpl_url": "http://ssd.jpl.nasa.gov/sbdb.cgi?sstr=3968758",
    "absolute_magnitude_h": 24.7,
    "estimated_diameter": {
        "kilometers": {
            "estimated_diameter_min": 0.0305179233,
            "estimated_diameter_max": 0.0682401509
        },
        "meters": {
            "estimated_diameter_min": 30.5179232594,
            "estimated_diameter_max": 68.2401509401
        },
        "miles": {
            "estimated_diameter_min": 0.0189629525,
            "estimated_diameter_max": 0.0424024508
        },
        "feet": {
            "estimated_diameter_min": 100.1244233463,
            "estimated_diameter_max": 223.8850168104
        }
    },
    "is_potentially_hazardous_asteroid": false,
    "close_approach_data": [
        {
            "close_approach_date": "2019-12-28",
            "close_approach_date_full": "2019-Dec-28 22:04",
            "epoch_date_close_approach": 1577570640000,
            "relative_velocity": {
                "kilometers_per_second": "10.7652765901",
                "kilometers_per_hour": "38754.9957245191",
                "miles_per_hour": "24080.8472044936"
            },
            "miss_distance": {
                "astronomical": "0.1010817765",
                "lunar": "39.3208110585",
                "kilometers": "15121618.460216055",
                "miles": "9396138.006469359"
            },
            "orbiting_body": "Earth"
        }
    ],
    "orbital_data": {
        "orbit_id": "2",
        "orbit_determination_date": "2020-01-06 05:39:53",
        "first_observation_date": "2019-12-30",
        "last_observation_date": "2020-01-06",
        "data_arc_in_days": 7,
        "observations_used": 25,
        "orbit_uncertainty": "8",
        "minimum_orbit_intersection": ".0964389",
        "jupiter_tisserand_invariant": "4.735",
        "epoch_osculation": "2458848.5",
        "eccentricity": ".2182795437809294",
        "semi_major_axis": "1.372907214016947",
        "inclination": "19.52506684672685",
        "ascending_node_longitude": "94.983538531032",
        "orbital_period": "587.5708034553306",
        "perihelion_distance": "1.073229653687781",
        "perihelion_argument": "16.10455825363811",
        "aphelion_distance": "1.672584774346113",
        "perihelion_time": "2458859.404646151167",
        "mean_anomaly": "353.3188092544177",
        "mean_motion": ".6126921179251014",
        "equinox": "J2000",
        "orbit_class": {
            "orbit_class_type": "AMO",
            "orbit_class_description": "Near-Earth asteroid orbits similar to that of 1221 Amor",
            "orbit_class_range": "1.017 AU < q (perihelion) < 1.3 AU"
        }
    },
    "is_sentry_object": false
}